NSS-10                  
1 28526U 05003A   25124.24766910 -.00000259  00000+0  00000+0 0  9995
2 28526   5.4282  75.3836 0002967 315.8713 242.8348  1.00271770 49054
XTAR-EUR                
1 28542U 05005A   25123.53050034  .00000141  00000+0  00000+0 0  9998
2 28542   3.2798  81.7878 0004908 303.9258  55.9315  1.00271986 74083
XM-3 (RHYTHM)           
1 28626U 05008A   25124.37822674 -.00000209  00000+0  00000+0 0  9990
2 28626   0.0176 292.7161 0001944 255.8813  83.7398  1.00269266 38526
INMARSAT 4-F1           
1 28628U 05009A   25124.34399492  .00000024  00000+0  00000+0 0  9991
2 28628   4.6461  42.1171 0003219  12.2026 110.0840  1.00272892 73570
DIRECTV 8               
1 28659U 05019A   25124.52643749 -.00000009  00000+0  00000+0 0  9997
2 28659   0.0087  83.4586 0002883 319.9616 249.6998  1.00271876 72971
GALAXY 28 (G-28)        
1 28702U 05022A   25124.43783762 -.00000195  00000+0  00000+0 0  9996
2 28702   2.2449  84.0178 0001513 307.0245 260.4380  1.00270313 47888
THAICOM 4               
1 28786U 05028A   25124.33631868 -.00000373  00000+0  00000+0 0  9990
2 28786   0.0027  83.6706 0002413 335.4597  43.9160  1.00273306 48151
ANIK F1R                
1 28868U 05036A   25124.57677373 -.00000082  00000+0  00000+0 0  9994
2 28868   3.2654  81.6566 0003315 326.5762 274.8102  1.00272064 42359
SYRACUSE 3A             
1 28885U 05041B   25124.17417580  .00000121  00000+0  00000+0 0  9990
2 28885   3.6003  80.9275 0003267 323.2257 262.6577  1.00272805 71646
INMARSAT 4-F2           
1 28899U 05044A   25124.19815478 -.00000269  00000+0  00000+0 0  9992
2 28899   4.5714  43.3851 0002936   9.5583  24.2221  1.00272890 71429
METEOSAT-9 (MSG-2)      
1 28912U 05049B   25123.95544126  .00000116  00000+0  00000+0 0  9995
2 28912   8.4299  58.0499 0000881 356.3353 197.4337  1.00277751  2901
EUTELSAT 174A           
1 28924U 05052A   25124.48655763  .00000002  00000+0  00000+0 0  9995
2 28924   3.1843  81.5822 0006349 321.8549 168.3682  1.00274221 48236
ECHOSTAR 10             
1 28935U 06003A   25124.57478844 -.00000065  00000+0  00000+0 0  9997
2 28935   0.0492  76.0006 0002458 291.7424 311.6934  1.00270835 70360
SPAINSAT                
1 28945U 06007A   25123.46776579 -.00000226  00000+0  00000+0 0  9994
2 28945   0.0121 198.2834 0002367 217.3784 304.3536  1.00271069 70118
EUTELSAT HOTBIRD 13E    
1 28946U 06007B   25124.43308679 -.00000135  00000+0  00000+0 0  9994
2 28946   1.0403  90.7055 0005686 328.4751 303.3029  1.00271197 70229
JCSAT-5A                
1 29045U 06010A   25124.53308495 -.00000338  00000+0  00000+0 0  9991
2 29045   0.0944  88.3203 0001490 319.3156 138.9921  1.00271388 69676
ASTRA 1KR               
1 29055U 06012A   25124.57421007  .00000109  00000+0  00000+0 0  9998
2 29055   0.0367 294.7637 0000914   2.9050 150.9445  1.00268640 41625
EWS-G1 (GOES 13)        
1 29155U 06018A   25124.46954896  .00000052  00000+0  00000+0 0  9997
2 29155   3.4703  81.3930 0064170 264.9833 115.8394  0.98816403 39213
GALAXY 16 (G-16)        
1 29236U 06023A   25124.43583753 -.00000137  00000+0  00000+0 0  9995
2 29236   0.0304 140.0212 0002577 251.9787 248.4578  1.00271248 68873
EUTELSAT HOTBIRD 13B    
1 29270U 06032A   25124.58378172  .00000146  00000+0  00000+0 0  9995
2 29270   0.6060  86.3067 0003907 311.3177  68.3241  1.00270941 43214
JCSAT-3A                
1 29272U 06033A   25124.40947293 -.00000356  00000+0  00000+0 0  9999
2 29272   0.0247  50.5473 0002440  14.6616  72.7217  1.00269391 43649
SYRACUSE 3B             
1 29273U 06033B   25124.24193623  .00000012  00000+0  00000+0 0  9990
2 29273   1.8527  85.2825 0003934 306.2056 281.3103  1.00269415 68571
KOREASAT 5 (MUGUNGWHA 5)
1 29349U 06034A   25124.40651900 -.00000368  00000+0  00000+0 0  9995
2 29349   0.7276  88.8039 0001395 353.4330  39.7087  1.00271869 37228
DIRECTV 9S              
1 29494U 06043A   25124.58283953 -.00000122  00000+0  00000+0 0  9992
2 29494   1.3663  85.8705 0002931 318.7488 286.7191  1.00271807 47287
OPTUS D1                
1 29495U 06043B   25124.41416447 -.00000192  00000+0  00000+0 0  9998
2 29495   1.9808  84.7570 0003694 313.7416 125.1340  1.00272640 68029
BADR-4                  
1 29526U 06051A   25124.58378172  .00000136  00000+0  00000+0 0  9999
2 29526   0.9504  85.1865 0005514 298.9051  75.0220  1.00273348 47179
WILDBLUE-1              
1 29643U 06054A   25124.43340488 -.00000058  00000+0  00000+0 0  9999
2 29643   1.7483  85.7686 0001373 308.1822 233.4502  1.00270033 49690
SKYNET 5A               
1 30794U 07007B   25124.50337755 -.00000279  00000+0  00000+0 0  9993
2 30794   4.2588  78.6864 0003901 333.6962  86.7000  1.00270994 66607
ANIK F3                 
1 31102U 07009A   25124.64508850 -.00000010  00000+0  00000+0 0  9993
2 31102   0.1406  88.3888 0002356 303.9924 303.9027  1.00271274 42463
ASTRA 1L                
1 31306U 07016A   25124.57421007  .00000111  00000+0  00000+0 0  9998
2 31306   0.2690  78.6043 0003130 323.1830  47.0371  1.00273582 40898
GALAXY 17 (G-17)        
1 31307U 07016B   25124.46641957 -.00000215  00000+0  00000+0 0  9991
2 31307   1.9383  85.1118 0000078  11.9522 208.4335  1.00270598 65704
ZHONGXING-6B            
1 31800U 07031A   25124.55322487 -.00000370  00000+0  00000+0 0  9992
2 31800   1.3443  86.5679 0003147 305.1528 145.3565  1.00266640 65330
DIRECTV 10              
1 31862U 07032A   25124.58001115 -.00000113  00000+0  00000+0 0  9991
2 31862   0.0022 289.2554 0000232  28.2290  11.2360  1.00271762 41498
OPTUS D2                
1 32252U 07044A   25124.56190339 -.00000118  00000+0  00000+0 0  9998
2 32252   1.0176  87.1886 0003973 291.9803 205.9696  1.00272858 64474
INTELSAT 11 (IS-11)     
1 32253U 07044B   25124.40860413 -.00000240  00000+0  00000+0 0  9995
2 32253   2.5011  83.7141 0000415  14.6998  35.2775  0.99047840 64401
WGS F1 (USA 195)        
1 32258U 07046A   25124.34628043 -.00000277  00000+0  00000+0 0  9996
2 32258   0.1047  88.3018 0000430 207.2711   9.0800  1.00270526 48236
SKYNET 5B               
1 32294U 07056B   25124.49712725  .00000133  00000+0  00000+0 0  9994
2 32294   4.2120  78.3776 0004122 321.2266  27.0798  1.00273163 64095
ASTRA 4A                
1 32299U 07057A   25124.42197714  .00000022  00000+0  00000+0 0  9995
2 32299   0.0167 314.3040 0002818  79.5299 345.4340  1.00270844 47545
HORIZONS-2              
1 32388U 07063B   25124.44079155 -.00000262  00000+0  00000+0 0  9998
2 32388   1.5476  85.7019 0001869 310.7429 271.0041  1.00273488 63714
THURAYA-3               
1 32404U 08001A   25124.11511492 -.00000311  00000+0  00000+0 0  9994
2 32404   5.3273  34.5941 0001820   4.4154 323.1746  1.00271755 63384
THOR 5                  
1 32487U 08006A   25124.42197714 -.00000019  00000+0  00000+0 0  9996
2 32487   0.0141 233.9090 0002376 169.5026 330.2932  1.00271251 63218
AMC-14                  
1 32708U 08011A   25123.93156909  .00000059  00000+0  00000+0 0  9997
2 32708  23.5049  25.4430 0044159   1.1126 188.4117  1.00273584 63994
DIRECTV 11              
1 32729U 08013A   25124.42406003 -.00000135  00000+0  00000+0 0  9996
2 32729   0.0093  37.8027 0000293 247.4711 350.7601  1.00269949 41494
ICO G1                  
1 32763U 08016A   25124.58559402 -.00000181  00000+0  00000+0 0  9997
2 32763   5.4083  36.7974 0002146   3.9733 299.9209  1.00272023 62372
VINASAT-1               
1 32767U 08018A   25124.33450244 -.00000339  00000+0  00000+0 0  9995
2 32767   0.0177 357.0419 0001531  56.4883  61.3119  1.00272049 62492
STAR ONE C2             
1 32768U 08018B   25124.44252917 -.00000286  00000+0  00000+0 0  9996
2 32768   0.2003  80.8391 0002647 325.1894 270.8461  1.00270105 62555
AMOS-3                  
1 32794U 08022A   25124.31572789 -.00000045  00000+0  00000+0 0  9991
2 32794   0.0577  93.1993 0002188 250.3078 348.4575  1.00272654 78237
GALAXY 18 (G-18)        
1 32951U 08024A   25124.56700242  .00000016  00000+0  00000+0 0  9999
2 32951   0.0125 262.6942 0003142 148.5321 252.5828  1.00270036 41753
ZHONGXING-9             
1 33051U 08028A   25124.37544837 -.00000258  00000+0  00000+0 0  9999
2 33051   0.0055 232.6614 0004134 183.7035  33.4904  1.00271118 61930
SKYNET 5C               
1 33055U 08030A   25124.23767909 -.00000148  00000+0  00000+0 0  9996
2 33055   2.7402  81.8385 0005180 321.3842 246.9136  1.00272501 61852
TURKSAT 3A              
1 33056U 08030B   25124.46372797  .00000136  00000+0  00000+0 0  9995
2 33056   0.0635  83.0747 0005108 330.1412  18.3102  1.00269535 48255
INTELSAT 25 (IS-25)     
1 33153U 08034A   25124.43864449 -.00000233  00000+0  00000+0 0  9993
2 33153   1.6542  85.3662 0003012 323.8964 299.7182  1.00270908 61592
ECHOSTAR 11             
1 33207U 08035A   25124.57478913 -.00000066  00000+0  00000+0 0  9990
2 33207   0.0151 275.7465 0002688 113.9114 289.9741  1.00271068 47112
SUPERBIRD-C2            
1 33274U 08038A   25124.53665226 -.00000261  00000+0  00000+0 0  9995
2 33274   1.3071  86.4932 0000789 288.6553 184.6448  1.00270293101636
AMC-21                  
1 33275U 08038B   25124.64038132  .00000028  00000+0  00000+0 0  9998
2 33275   1.8933  85.4988 0002706 321.4219 281.4686  1.00271590 61394
INMARSAT 4-F3           
1 33278U 08039A   25124.58236363 -.00000149  00000+0  00000+0 0  9996
2 33278   3.9569  29.6866 0002742  22.0072 282.6732  1.00270899 42442
NIMIQ 4                 
1 33373U 08044A   25124.43922771 -.00000230  00000+0  00000+0 0  9998
2 33373   0.0191 285.8954 0002311 102.8966 269.8995  1.00273006 60881
GALAXY 19 (G-19)        
1 33376U 08045A   25124.58344914 -.00000149  00000+0  00000+0 0  9994
2 33376   0.0014 114.5033 0002676 281.0876 300.1543  1.00272094 60804
ASTRA 1M                
1 33436U 08057A   25124.57421007  .00000110  00000+0  00000+0 0  9999
2 33436   0.0750  78.7964 0003168   5.7651   4.0319  1.00272559 41649
